[Satellite]
VERSION=1.1
NAME=LEMUR-2-JOBANPUTRA
NICKNAME=LEMUR-2-JOBANPUTRA
TLE1=1 41997U 17008BB  17186.22261561  .00001796  00000-0  80332-4 0  9997
TLE2=2 41997  97.4953 247.5513 0010000 139.9647 220.2328 15.22586397 20599
